NORAD_CAT_ID,OBJECT_NAME,OBJECT_TYPE,EPOCH,MEAN_MOTION,ECCENTRICITY,INCLINATION,RA_OF_ASC_NODE,ARG_OF_PERICENTER,MEAN_ANOMALY,BSTAR,MEAN_MOTION_DOT,MEAN_MOTION_DDOT,TLE_LINE0,TLE_LINE1,TLE_LINE2,SEMIMAJOR_AXIS,PERIOD,APOGEE,PERIGEE,DECAYED
50169.0,STARLINK-3301,PAYLOAD,2022-03-28 08:00:01,15.08816199,0.0001656,53.2184,244.0947,46.7063,117.9086,0.0030901,0.00049202,0.0,0 STARLINK-3301,1 50169U 21125P   22087.33334491  .00049202  00000-0  30901-2 0  9993,2 50169  53.2184 244.0947 0001656  46.7063 117.9086 15.08816199 15769,6917.953,95.439,540.964,538.673,0.0
50169.0,STARLINK-3301,PAYLOAD,2022-03-28 14:00:01,15.08862235,0.0001767,53.2187,242.9734,45.5845,37.7795,-0.0012146,-0.00019578,0.0,0 STARLINK-3301,1 50169U 21125P   22087.58335648 -.00019578  00000-0 -12146-2 0  9991,2 50169  53.2187 242.9734 0001767  45.5845  37.7795 15.08862235  3621,6917.812,95.436,540.9,538.455,0.0
50169.0,STARLINK-3301,PAYLOAD,2022-03-28 22:00:00,15.08851335,0.0001866,53.2186,241.4781,39.0273,55.8882,-0.00035908,-6e-05,0.0,0 STARLINK-3301,1 50169U 21125P   22087.91667824 -.00006000  00000-0 -35908-3 0  9990,2 50169  53.2186 241.4781 0001866  39.0273  55.8882 15.08851335 15854,6917.846,95.437,541.002,538.42,0.0
50169.0,STARLINK-3301,PAYLOAD,2022-03-29 14:00:01,15.08840022,0.0001838,53.2192,238.4845,45.4866,72.622,-0.0014375,-0.00023093,0.0,0 STARLINK-3301,1 50169U 21125P   22088.58334491 -.00023093  00000-0 -14375-2 0  9990,2 50169  53.2192 238.4845 0001838  45.4866  72.6220 15.08840022  3587,6917.88,95.438,541.0169999999998,538.474,0.0
50169.0,STARLINK-3301,PAYLOAD,2022-03-29 22:00:00,15.08822298,0.0001957,53.2191,236.9889,40.3283,89.3665,0.002656,0.00042216,0.0,0 STARLINK-3301,1 50169U 21125P   22088.91667824  .00042216  00000-0  26560-2 0  9991,2 50169  53.2191 236.9889 0001957  40.3283  89.3665 15.08822298  3589,6917.934,95.439,541.153,538.446,0.0
50169.0,STARLINK-3301,PAYLOAD,2022-03-30 02:00:01,15.08856012,0.0001867,53.2193,236.2398,42.9154,272.5677,-0.0012652,-0.00020376,0.0,0 STARLINK-3301,1 50169U 21125P   22089.08334491 -.00020376  00000-0 -12652-2 0  9993,2 50169  53.2193 236.2398 0001867  42.9154 272.5677 15.08856012 16027,6917.831,95.437,540.988,538.405,0.0
50169.0,STARLINK-3301,PAYLOAD,2022-03-30 14:00:01,15.08848752,0.0001934,53.2197,233.9956,46.3481,106.6046,-0.001502,-0.00024119,0.0,0 STARLINK-3301,1 50169U 21125P   22089.58335648 -.00024119  00000-0 -15020-2 0  9994,2 50169  53.2197 233.9956 0001934  46.3481 106.6046 15.08848752  3587,6917.854,95.437,541.057,538.381,0.0
50169.0,STARLINK-3301,PAYLOAD,2022-03-30 20:00:01,15.08825338,0.0002027,53.2197,232.8743,42.5754,29.0154,0.0017019,0.00026891,0.0,0 STARLINK-3301,1 50169U 21125P   22089.83334491  .00026891  00000-0  17019-2 0  9994,2 50169  53.2197 232.8743 0002027  42.5754  29.0154 15.08825338 16143,6917.925,95.438,541.192,538.388,0.0
50169.0,STARLINK-3301,PAYLOAD,2022-03-30 22:00:00,15.08845992,0.0002018,53.2195,232.4999,41.9115,122.5708,-0.00093162,-0.00015087,0.0,0 STARLINK-3301,1 50169U 21125P   22089.91667824 -.00015087  00000-0 -93162-3 0  9993,2 50169  53.2195 232.4999 0002018  41.9115 122.5708 15.08845992  3636,6917.861999999999,95.437,541.123,538.331,0.0
50169.0,STARLINK-3301,PAYLOAD,2022-03-31 14:00:01,15.0885581,0.0001867,53.2199,229.5069,43.6602,144.0008,-0.0019386,-0.00031022,0.0,0 STARLINK-3301,1 50169U 21125P   22090.58334491 -.00031022  00000-0 -19386-2 0  9991,2 50169  53.2199 229.5069 0001867  43.6602 144.0008 15.08855810 16250,6917.831999999999,95.437,540.989,538.406,0.0
50169.0,STARLINK-3301,PAYLOAD,2022-03-31 22:00:00,15.0884582,0.0001913,53.2195,228.011,38.523,160.7592,0.0010824,0.00016983,0.0,0 STARLINK-3301,1 50169U 21125P   22090.91667824  .00016983  00000-0  10824-2 0  9992,2 50169  53.2195 228.0110 0001913  38.5230 160.7592 15.08845820 16308,6917.863,95.437,541.0509999999998,538.404,0.0
50169.0,STARLINK-3301,PAYLOAD,2022-04-01 14:00:01,15.0886078,0.0001908,53.2198,225.0184,43.3468,179.1567,-0.0017942999999999,-0.00028748,0.0,0 STARLINK-3301,1 50169U 21125P   22091.58334491 -.00028748  00000-0 -17943-2 0  9990,2 50169  53.2198 225.0184 0001908  43.3468 179.1567 15.08860780  3618,6917.816999999999,95.436,541.002,538.362,0.0
50169.0,STARLINK-3301,PAYLOAD,2022-04-01 22:00:00,15.08871181,0.0002009,53.2194,223.5223,40.8369,193.2821,-0.0044161,-0.0006995,0.0,0 STARLINK-3301,1 50169U 21125P   22091.91667824 -.00069950  00000-0 -44161-2 0  9998,2 50169  53.2194 223.5223 0002009  40.8369 193.2821 15.08871181 16459,6917.785,95.436,541.04,538.26,0.0
50169.0,STARLINK-3301,PAYLOAD,2022-04-02 14:00:01,15.08839441,0.0002035,53.2195,220.5298,45.299,212.0567,-0.0010877,-0.00017557,0.0,0 STARLINK-3301,1 50169U 21125P   22092.58335648 -.00017557  00000-0 -10877-2 0  9991,2 50169  53.2195 220.5298 0002035  45.2990 212.0567 15.08839441 16558,6917.882,95.438,541.155,538.339,0.0
50169.0,STARLINK-3301,PAYLOAD,2022-04-02 22:00:01,15.08853768,0.0001976,53.2192,219.0336,39.7275,229.221,-0.0047497,-0.00075122,0.0,0 STARLINK-3301,1 50169U 21125P   22092.91668981 -.00075122  00000-0 -47497-2 0  9997,2 50169  53.2192 219.0336 0001976  39.7275 229.2210 15.08853768  3579,6917.8380000000025,95.437,541.07,538.336,0.0
50169.0,STARLINK-3301,PAYLOAD,2022-04-03 22:00:00,15.08818078,0.0001944,53.2193,214.5452,33.8864,269.6904,-0.0004997,-8.227e-05,0.0,0 STARLINK-3301,1 50169U 21125P   22093.91667824 -.00008227  00000-0 -49970-3 0  9994,2 50169  53.2193 214.5452 0001944  33.8864 269.6904 15.08818078 16750,6917.946999999999,95.439,541.1569999999998,538.4680000000002,0.0
50169.0,STARLINK-3301,PAYLOAD,2022-04-04 14:00:01,15.08847787,0.0001988,53.2195,211.5529,35.8182,290.8947,-0.0015254,-0.00024489,0.0,0 STARLINK-3301,1 50169U 21125P   22094.58334491 -.00024489  00000-0 -15254-2 0  9994,2 50169  53.2195 211.5529 0001988  35.8182 290.8947 15.08847787 16850,6917.857,95.437,541.097,538.346,0.0
50169.0,STARLINK-3301,PAYLOAD,2022-04-04 22:00:00,15.08849793,0.0001995,53.2194,210.0565,31.654,306.6654,-0.00071298,-0.00011621,0.0,0 STARLINK-3301,1 50169U 21125P   22094.91667824 -.00011621  00000-0 -71298-3 0  9995,2 50169  53.2194 210.0565 0001995  31.6540 306.6654 15.08849793  3613,6917.85,95.437,541.096,538.335,0.0
50169.0,STARLINK-3301,PAYLOAD,2022-04-05 06:00:00,15.08825401,0.0001786,53.2197,208.5589,36.2688,313.6464,0.0031033,0.00049428,0.0,0 STARLINK-3301,1 50169U 21125P   22095.25001157  .00049428  00000-0  31033-2 0  9990,2 50169  53.2197 208.5589 0001786  36.2688 313.6464 15.08825401 16954,6917.925,95.438,541.026,538.554,0.0
50169.0,STARLINK-3301,PAYLOAD,2022-04-05 14:00:01,15.08864238,0.0002022,53.2197,207.0643,33.3555,328.2245,-0.0038135,-0.00060512,0.0,0 STARLINK-3301,1 50169U 21125P   22095.58335648 -.00060512  00000-0 -38135-2 0  9990,2 50169  53.2197 207.0643 0002022  33.3555 328.2245 15.08864238  3578,6917.806,95.436,541.07,538.273,0.0
50169.0,STARLINK-3301,PAYLOAD,2022-04-05 22:00:00,15.08840623,0.000209,53.2196,205.5677,33.4257,339.6877,-0.0039797,-0.00063074,0.0,0 STARLINK-3301,1 50169U 21125P   22095.91667824 -.00063074  00000-0 -39797-2 0  9992,2 50169  53.2196 205.5677 0002090  33.4257 339.6877 15.08840623 17060,6917.878000000002,95.438,541.189,538.298,0.0
50169.0,STARLINK-3301,PAYLOAD,2022-04-06 14:00:01,15.08816775,0.0002179,53.2198,202.5759,37.2221,359.0122,9.2355e-05,1.181e-05,0.0,0 STARLINK-3301,1 50169U 21125P   22096.58334491  .00001181  00000-0  92355-4 0  9997,2 50169  53.2198 202.5759 0002179  37.2221 359.0122 15.08816775 17162,6917.951,95.439,541.3240000000002,538.309,0.0
50169.0,STARLINK-3301,PAYLOAD,2022-04-06 22:00:00,15.08845791,0.0002137,53.2196,201.0791,36.2484,11.5544,-0.00099101,-0.00016028,0.0,0 STARLINK-3301,1 50169U 21125P   22096.91667824 -.00016028  00000-0 -99101-3 0  9996,2 50169  53.2196 201.0791 0002137  36.2484  11.5544 15.08845791  3617,6917.863,95.437,541.206,538.249,0.0
50169.0,STARLINK-3301,PAYLOAD,2022-04-07 06:00:00,15.08828205,0.0001956,53.2198,199.5818,41.3231,18.0705,0.0027656,0.00043988,0.0,0 STARLINK-3301,1 50169U 21125P   22097.25001157  .00043988  00000-0  27656-2 0  9993,2 50169  53.2198 199.5818 0001956  41.3231  18.0705 15.08828205 17263,6917.916,95.438,541.135,538.428,0.0
50169.0,STARLINK-3301,PAYLOAD,2022-04-07 14:00:01,15.08864365,0.0002143,53.2197,198.0874,36.6885,34.3037,-0.0026043,-0.00041526,0.0,0 STARLINK-3301,1 50169U 21125P   22097.58334491 -.00041526  00000-0 -26043-2 0  9996,2 50169  53.2197 198.0874 0002143  36.6885  34.3037 15.08864365  3608,6917.806,95.436,541.153,538.188,0.0
50169.0,STARLINK-3301,PAYLOAD,2022-04-07 20:00:01,15.08852346,0.0002112,53.2192,196.9649,33.2339,316.4737,-0.00036499,-6.095e-05,0.0,0 STARLINK-3301,1 50169U 21125P   22097.83334491 -.00006095  00000-0 -36499-3 0  9993,2 50169  53.2192 196.9649 0002112  33.2339 316.4737 15.08852346 17346,6917.843000000003,95.437,541.169,538.247,0.0
50169.0,STARLINK-3301,PAYLOAD,2022-04-07 22:00:00,15.08859647,0.0002021,53.2194,196.5902,34.5911,48.0205,-0.00079133,-0.00012867,0.0,0 STARLINK-3301,1 50169U 21125P   22097.91667824 -.00012867  00000-0 -79133-3 0  9997,2 50169  53.2194 196.5902 0002021  34.5911  48.0205 15.08859647  3574,6917.82,95.436,541.0830000000002,538.2869999999998,0.0
50169.0,STARLINK-3301,PAYLOAD,2022-04-08 14:00:03,15.08887576,0.0002098,53.2193,193.5985,35.0364,70.9398,-0.0022158,-0.00035426,0.0,0 STARLINK-3301,1 50169U 21125P   22098.58336806 -.00035426  00000-0 -22158-2 0  9994,2 50169  53.2193 193.5985 0002098  35.0364  70.9398 15.08887576 17465,6917.735,95.435,541.0509999999998,538.149,0.0
50169.0,STARLINK-3301,PAYLOAD,2022-04-08 22:00:00,15.08883019,0.0002049,53.2189,192.1014,35.7786,81.7084,-0.0056789,-0.00089653,0.0,0 STARLINK-3301,1 50169U 21125P   22098.91667824 -.00089653  00000-0 -56789-2 0  9996,2 50169  53.2189 192.1014 0002049  35.7786  81.7084 15.08883019  3576,6917.749,95.435,541.031,538.196,0.0
